ZHONGXING-19            
1 54230U 22148A   26198.22892036  .00000000  00000+0  00000+0 0  9997
2 54230   0.0220  65.8112 0003152  69.1729  45.6713  1.00269925 13686
GALAXY 31 (G-31)        
1 54243U 22153A   26198.17267343  .00000003  00000+0  00000+0 0  9991
2 54243   0.0169  92.1300 0001064  27.4573 116.5480  1.00271807  7435
GALAXY 32 (G-32)        
1 54244U 22153B   26198.24988808 -.00000184  00000+0  00000+0 0  9997
2 54244   0.0104  47.3171 0001377 358.5249 248.1834  1.00272434 13448
EUTELSAT 10B            
1 54259U 22157A   26198.26990817  .00000057  00000+0  00000+0 0  9990
2 54259   0.0604  95.4053 0001550  13.0760 293.7389  1.00266819 13324
GALAXY 35 (G-35)        
1 54741U 22170A   26198.24945475 -.00000172  00000+0  00000+0 0  9998
2 54741   0.0150  81.5982 0001847  34.8105 175.3484  1.00272251 13199
GALAXY 36 (G-36)        
1 54742U 22170B   26198.25032141 -.00000195  00000+0  00000+0 0  9992
2 54742   0.0148 138.1492 0002588 320.6083 197.4244  1.00271883 13072
METEOSAT-12 (MTG-I1)    
1 54743U 22170C   26198.26782817 -.00000019  00000+0  00000+0 0  9991
2 54743   0.7275  20.0995 0003893  81.5150 289.5425  1.00268293 13284
SHIJIAN-23 (SJ-23)      
1 55131U 23002A   26197.75892730 -.00000366  00000+0  00000+0 0  9992
2 55131   3.7915  77.9394 0003420 272.3811 345.4914  1.00076137 12800
APSTAR-6E               
1 55239U 23005A   26197.74930031 -.00000329  00000+0  00000+0 0  9999
2 55239   0.0553 292.4334 0001269 338.8855  66.9853  1.00265554 18985
USA 342                 
1 55263U 23008A   26196.34785685  .00000000  00000+0  00000+0 0  9992
2 55263   0.0068  33.1422 0000237  23.5747  25.6345  1.00268904 12796
LDPE-3A                 
1 55264U 23008B   26198.29348162 -.00000281  00000+0  00000+0 0  9996
2 55264   2.4246  81.2908 0001552  74.9846  13.8030  0.99149386 12110
ELEKTRO-L 4             
1 55506U 23016A   26197.72123859 -.00000069  00000+0  00000+0 0  9999
2 55506   0.1167 278.4001 0001529 256.3747 185.2061  1.00270652 12639
AMAZONAS NEXUS          
1 55508U 23017A   26198.25586810 -.00000292  00000+0  00000+0 0  9999
2 55508   0.0350  44.2577 0004419  43.2349 238.6889  1.00269747  7349
ZHONGXING-26            
1 55686U 23023A   26197.79371900 -.00000364  00000+0  00000+0 0  9993
2 55686   0.0634  71.3638 0003292  31.3837 242.7195  1.00269487 12521
LUCH-5X (OLYMP-K 2)     
1 55841U 23031A   26197.76088387  .00000022  00000+0  00000+0 0  9996
2 55841   0.0283  94.5630 0001121 189.9934 345.9278  1.00273578 12232
GAOFEN-13 02            
1 55912U 23036A   26198.19419888 -.00000228  00000+0  00000+0 0  9991
2 55912   1.0285   4.8500 0003674 337.2502 171.0768  1.00274027 12397
SES-18                  
1 55970U 23038A   26198.24746140 -.00000111  00000+0  00000+0 0  9998
2 55970   0.0473 248.5114 0000776 313.9991  78.5415  1.00270469 12408
SES-19                  
1 55971U 23038B   26197.74223181  .00000077  00000+0  00000+0 0  9998
2 55971   0.0105  23.6874 0001559  89.8174 313.3459  1.00270104 12389
INTELSAT 40E (IS-40E)   
1 56174U 23052A   26198.24988808 -.00000184  00000+0  00000+0 0  9990
2 56174   0.0146  83.5860 0002272  60.1271 150.3153  1.00271699 12125
VIASAT-3 F1             
1 56370U 23060A   26195.82648433  .00000000  00000+0  00000+0 0  9991
2 56370   0.0149  26.8771 0000771  79.6667  34.7004  1.00270317 11713
ARCTURUS                
1 56371U 23060B   26198.09538992 -.00000355  00000+0  00000+0 0  9996
2 56371   2.8487  79.5684 0001100 132.3516 218.5679  1.00593851 11759
GS-1                    
1 56372U 23060C   26197.78661230 -.00000233  00000+0  00000+0 0  9999
2 56372   2.7990  79.4806 0003361 280.4391 307.1481  1.00266298  7832
BEIDOU-3 G4             
1 56564U 23066A   26198.29564830 -.00000290  00000+0  00000+0 0  9996
2 56564   0.4588 339.5854 0004945 185.8011  16.2293  1.00271920 11698
ARABSAT-7B (BADR-8)     
1 56757U 23075A   26198.20179356  .00000134  00000+0  00000+0 0  9992
2 56757   0.0730  29.7092 0003444   1.4078   2.5443  1.00271489 11413
NVS-01 (IRNSS-1J)       
1 56759U 23076A   26198.29356829 -.00000346  00000+0  00000+0 0  9992
2 56759   2.0965 242.9729 0003101  20.4934 266.7429  1.00277571 11411
NUSANTARA TIGA (SATRIA) 
1 57045U 23086A   26198.24906178 -.00000245  00000+0  00000+0 0  9993
2 57045   0.0361  15.0524 0002110 321.0912 194.5760  1.00268131 10063
H2SAT (HEINRICH HERTZ)  
1 57213U 23093A   26198.26808817 -.00000008  00000+0  00000+0 0  9998
2 57213   0.0262 101.4188 0000156 345.7635 305.1023  1.00272815 11213
SYRACUSE 4B             
1 57214U 23093B   26198.19538020 -.00000064  00000+0  00000+0 0  9999
2 57214   0.0182  53.9215 0000216 208.7130  96.2492  1.00272334  7266
JUPITER 3 (ECHOSTAR 24) 
1 57479U 23108A   26197.44693973 -.00000161  00000+0  00000+0 0  9993
2 57479   0.0123  42.7338 0001095  70.4132 246.8438  1.00271846 10947
GALAXY 37 (G-37)        
1 57493U 23112A   26198.24272977  .00000000  00000+0  00000+0 0  9991
2 57493   0.0192  54.9239 0001989  60.5977 139.9330  1.00269846 10842
LUDI TANCE-4 01A        
1 57624U 23120A   26198.00041119 -.00000188  00000+0  00000+0 0  9990
2 57624  15.0852 193.2277 0001504  13.3405 177.9382  1.00275549 10847
TJS-10                  
1 58204U 23169A   26197.77594424 -.00000261  00000+0  00000+0 0  9995
2 58204   2.6188  80.1357 0004084 114.6578 111.5406  1.00273410  9834
ZHONGXING-6E            
1 58253U 23172A   26195.70499280 -.00000370  00000+0  00000+0 0  9999
2 58253   0.0192  86.2131 0002698  23.7417 191.9164  1.00272476  9938
YAOGAN-41               
1 58582U 23197A   26198.29226828 -.00000370  00000+0  00000+0 0  9994
2 58582   3.0747 313.6247 0013924 200.9436   8.8655  1.00276333  9624
OVZON-3                 
1 58698U 24003A   26198.06588188  .00000042  00000+0  00000+0 0  9999
2 58698   0.0134 122.6869 0000242 221.9498  33.6442  1.00270446  7747
INSAT-3DS               
1 58990U 24033A   26198.15822488 -.00000166  00000+0  00000+0 0  9999
2 58990   0.0855 264.3862 0001133 223.2807 306.3367  1.00270806 47366
MERAH PUTIH 2           
1 58995U 24035A   26198.07645525  .00000000  00000+0  00000+0 0  9998
2 58995   0.0137  62.2046 0001094  30.7908 342.3755  1.00266097  8884
TJS-11                  
1 59020U 24037A   26197.98329998 -.00000371  00000+0  00000+0 0  9994
2 59020   4.1605 327.4596 0001857 152.0448 281.8630  1.00273020  8882
HULIANWAN GAOGUI-01 (H*)
1 59069U 24040A   26198.27458821  .00000146  00000+0  00000+0 0  9991
2 59069   0.0747 332.1411 0001970  67.1716  28.2531  1.00271825  7632
EUTELSAT 36D            
1 59346U 24059A   26198.27502154  .00000146  00000+0  00000+0 0  9998
2 59346   0.0181  54.3896 0000118 195.5203 180.0584  1.00270226  8441
PAKSAT-MM1              
1 59915U 24104A   26198.27545487  .00000144  00000+0  00000+0 0  9995
2 59915   0.0302 165.0125 0002006 291.8471 335.5693  1.00271121  7822
ASTRA 1P (SES-24)       
1 60086U 24115A   26198.09836377  .00000109  00000+0  00000+0 0  9990
2 60086   0.0661 332.7796 0000875 228.6583 148.0995  1.00271227  7494
GOES 19                 
1 60133U 24119A   26198.25300809 -.00000258  00000+0  00000+0 0  9997
2 60133   0.0146 136.9734 0000400  64.6302 109.3525  1.00271001  7266
ZHONGXING-3A            
1 60179U 24122A   26197.71209671 -.00000328  00000+0  00000+0 0  9994
2 60179   0.0284 124.5614 0002013 325.6390 202.3047  1.00296408  7607
TURKSAT 6A              
1 60233U 24127A   26198.20491358  .00000000  00000+0  00000+0 0  9996
2 60233   0.0182 192.5926 0002996 334.4822 243.6919  1.00270613  7318
HULIANWAN GAOGUI-02 (H*)
1 60327U 24135A   26198.14280782 -.00000184  00000+0  00000+0 0  9993
2 60327   0.0469 357.5874 0006143  11.5161 130.2992  1.00271956  7809
ZHONGXING-4A            
1 60606U 24151A   26198.29131494 -.00000372  00000+0  00000+0 0  9991
2 60606   1.2379 270.4719 0000223  28.8005 218.9067  1.00274358  7057
HULIANWAN GAOGUI-03 (H*)
1 61503U 24181A   26197.82491916 -.00000251  00000+0  00000+0 0  9993
2 61503   0.0514 357.5720 0001101  95.5770  61.3463  1.00270553  7128
DSN-3 (KIRAMEKI-3)      
1 61733U 24198A   26198.01124458 -.00000260  00000+0  00000+0 0  9992
2 61733   0.0181  47.9410 0000882  90.5907 304.4135  1.00271383  6219
KOREASAT 6A             
1 61910U 24206A   26198.29088161 -.00000372  00000+0  00000+0 0  9993
2 61910   0.0190 102.2957 0000792 353.3316  60.1923  1.00269162  6146
OPTUS-X (ADS-01)        
1 62006U 24212A   26198.18933684  .00000000  00000+0  00000+0 0  9991
2 62006   0.0177  42.4515 0002349 107.5571   9.5883  1.00275610  6063
GSAT-N2 (GSAT-20)       
1 62028U 24214A   26198.21011361 -.00000029  00000+0  00000+0 0  9992
2 62028   0.0685 261.5059 0002666 145.9152  31.1764  1.00271549  6191
SXM-9                   
1 62259U 24234A   26198.08302372 -.00000215  00000+0  00000+0 0  9997
2 62259   0.0166 347.8139 0004959 330.4985 281.3059  1.00271649  5871
TJS-12                  
1 62374U 24246A   26198.19419888 -.00000242  00000+0  00000+0 0  9991
2 62374   0.6071 302.3576 0001838  98.7280 110.3437  1.00268637  5869
NUVIEW ALPHA            
1 62455U 24252B   26198.25144808 -.00000225  00000+0  00000+0 0  9993
2 62455   0.0410  22.2918 0001115  67.3286 212.8698  1.00272154  4128
AGILA                   
1 62456U 24252C   26198.24350389 -.00000191  00000+0  00000+0 0  9998
2 62456   0.0405 168.8391 0001380 309.3577  56.6902  1.00272750  5463
NUVIEW BRAVO            
1 62457U 24252D   26198.25144808 -.00000225  00000+0  00000+0 0  9995
2 62457   0.0685 166.6833 0001624 338.8913 156.9041  1.00271537  4091
THURAYA-4               
1 62483U 25001A   26198.27666821  .00000129  00000+0  00000+0 0  9995
2 62483   0.0231  74.6581 0000403 124.8216 239.5276  1.00273756  4473
SHIJIAN-25 (SJ-25)      
1 62485U 25002A   26197.77611625 -.00000364  00000+0  00000+0 0  9996
2 62485   5.1818  60.9762 0052123 175.5524 104.5543  1.00261568  5659
TJS-14                  
1 62804U 25017A   26198.27155485  .00000105  00000+0  00000+0 0  9992
2 62804   0.7161 297.9182 0002002 307.9493 165.3782  1.00268059  5574
